[{"OBJECT_NAME":"STARLINK-32696","OBJECT_ID":"2024-239K","EPOCH":"2025-08-25T13:39:04.633632","MEAN_MOTION":15.30212822,"ECCENTRICITY":0.00016644,"INCLINATION":53.1602,"RA_OF_ASC_NODE":25.1171,"ARG_OF_PERICENTER":94.8191,"MEAN_ANOMALY":265.3,"EPHEMERIS_TYPE":0,"CLASSIFICATION_TYPE":"U","NORAD_CAT_ID":62310,"ELEMENT_SET_NO":999,"REV_AT_EPOCH":3935,"BSTAR":0.00088687175,"MEAN_MOTION_DOT":0.0002601,"MEAN_MOTION_DDOT":0},{"OBJECT_NAME":"STARLINK-32700","OBJECT_ID":"2024-239L","EPOCH":"2025-08-25T14:52:56.580384","MEAN_MOTION":15.39618023,"ECCENTRICITY":0.00011953,"INCLINATION":53.1603,"RA_OF_ASC_NODE":15.4937,"ARG_OF_PERICENTER":78.5853,"MEAN_ANOMALY":281.5286,"EPHEMERIS_TYPE":0,"CLASSIFICATION_TYPE":"U","NORAD_CAT_ID":62311,"ELEMENT_SET_NO":999,"REV_AT_EPOCH":3948,"BSTAR":0.00020401867,"MEAN_MOTION_DOT":7.769e-5,"MEAN_MOTION_DDOT":0},{"OBJECT_NAME":"STARLINK-32698","OBJECT_ID":"2024-239M","EPOCH":"2025-08-25T13:48:11.187072","MEAN_MOTION":15.3018802,"ECCENTRICITY":0.00012014,"INCLINATION":53.1596,"RA_OF_ASC_NODE":25.1526,"ARG_OF_PERICENTER":68.2008,"MEAN_ANOMALY":291.9121,"EPHEMERIS_TYPE":0,"CLASSIFICATION_TYPE":"U","NORAD_CAT_ID":62312,"ELEMENT_SET_NO":999,"REV_AT_EPOCH":3935,"BSTAR":0.0005921735,"MEAN_MOTION_DOT":0.00017213,"MEAN_MOTION_DDOT":0},{"OBJECT_NAME":"STARLINK-32634","OBJECT_ID":"2024-239N","EPOCH":"2025-08-25T14:53:25.167552","MEAN_MOTION":15.39605273,"ECCENTRICITY":0.00015147,"INCLINATION":53.1596,"RA_OF_ASC_NODE":15.4967,"ARG_OF_PERICENTER":47.1296,"MEAN_ANOMALY":312.9835,"EPHEMERIS_TYPE":0,"CLASSIFICATION_TYPE":"U","NORAD_CAT_ID":62313,"ELEMENT_SET_NO":999,"REV_AT_EPOCH":3949,"BSTAR":0.00080497268,"MEAN_MOTION_DOT":0.00031918,"MEAN_MOTION_DDOT":0},{"OBJECT_NAME":"STARLINK-32651","OBJECT_ID":"2024-239P","EPOCH":"2025-08-25T14:32:05.845344","MEAN_MOTION":15.30203025,"ECCENTRICITY":0.00011487,"INCLINATION":53.1618,"RA_OF_ASC_NODE":24.6327,"ARG_OF_PERICENTER":48.8772,"MEAN_ANOMALY":311.2328,"EPHEMERIS_TYPE":0,"CLASSIFICATION_TYPE":"U","NORAD_CAT_ID":62314,"ELEMENT_SET_NO":999,"REV_AT_EPOCH":3936,"BSTAR":0.00073392182,"MEAN_MOTION_DOT":0.00021442,"MEAN_MOTION_DDOT":0},{"OBJECT_NAME":"STARLINK-32627","OBJECT_ID":"2024-239Q","EPOCH":"2025-08-25T13:45:08.216064","MEAN_MOTION":15.30207349,"ECCENTRICITY":0.00016387,"INCLINATION":53.1595,"RA_OF_ASC_NODE":25.0942,"ARG_OF_PERICENTER":117.4079,"MEAN_ANOMALY":242.7089,"EPHEMERIS_TYPE":0,"CLASSIFICATION_TYPE":"U","NORAD_CAT_ID":62315,"ELEMENT_SET_NO":999,"REV_AT_EPOCH":3935,"BSTAR":0.00047628148,"MEAN_MOTION_DOT":0.00013776,"MEAN_MOTION_DDOT":0},{"OBJECT_NAME":"STARLINK-32596","OBJECT_ID":"2024-239R","EPOCH":"2025-08-25T13:34:30.845856","MEAN_MOTION":15.30194691,"ECCENTRICITY":0.00011771,"INCLINATION":53.16,"RA_OF_ASC_NODE":25.094,"ARG_OF_PERICENTER":42.0308,"MEAN_ANOMALY":318.0783,"EPHEMERIS_TYPE":0,"CLASSIFICATION_TYPE":"U","NORAD_CAT_ID":62316,"ELEMENT_SET_NO":999,"REV_AT_EPOCH":3935,"BSTAR":0.00053081215,"MEAN_MOTION_DOT":0.00015392,"MEAN_MOTION_DDOT":0},{"OBJECT_NAME":"STARLINK-32519","OBJECT_ID":"2024-239S","EPOCH":"2025-08-25T13:46:33.356352","MEAN_MOTION":15.39643775,"ECCENTRICITY":0.00018623,"INCLINATION":53.1611,"RA_OF_ASC_NODE":15.2018,"ARG_OF_PERICENTER":80.1431,"MEAN_ANOMALY":279.9784,"EPHEMERIS_TYPE":0,"CLASSIFICATION_TYPE":"U","NORAD_CAT_ID":62317,"ELEMENT_SET_NO":999,"REV_AT_EPOCH":3949,"BSTAR":0.00079457027,"MEAN_MOTION_DOT":0.00031539,"MEAN_MOTION_DDOT":0},{"OBJECT_NAME":"STARLINK-32527","OBJECT_ID":"2024-239U","EPOCH":"2025-08-25T12:39:20.721024","MEAN_MOTION":15.39654713,"ECCENTRICITY":0.00011243,"INCLINATION":53.1606,"RA_OF_ASC_NODE":15.6218,"ARG_OF_PERICENTER":69.2958,"MEAN_ANOMALY":290.8167,"EPHEMERIS_TYPE":0,"CLASSIFICATION_TYPE":"U","NORAD_CAT_ID":62319,"ELEMENT_SET_NO":999,"REV_AT_EPOCH":3948,"BSTAR":0.00088217256,"MEAN_MOTION_DOT":0.00035089,"MEAN_MOTION_DDOT":0},{"OBJECT_NAME":"STARLINK-32481","OBJECT_ID":"2024-239V","EPOCH":"2025-08-25T14:39:33.969312","MEAN_MOTION":15.39617809,"ECCENTRICITY":0.00016754,"INCLINATION":53.1603,"RA_OF_ASC_NODE":15.434,"ARG_OF_PERICENTER":125.7414,"MEAN_ANOMALY":234.3747,"EPHEMERIS_TYPE":0,"CLASSIFICATION_TYPE":"U","NORAD_CAT_ID":62320,"ELEMENT_SET_NO":999,"REV_AT_EPOCH":3949,"BSTAR":0.00029601902,"MEAN_MOTION_DOT":0.00011458,"MEAN_MOTION_DDOT":0},{"OBJECT_NAME":"STARLINK-32645","OBJECT_ID":"2024-239W","EPOCH":"2025-08-25T14:59:37.999968","MEAN_MOTION":15.3961138,"ECCENTRICITY":0.00015554,"INCLINATION":53.16,"RA_OF_ASC_NODE":15.5223,"ARG_OF_PERICENTER":54.8313,"MEAN_ANOMALY":305.2837,"EPHEMERIS_TYPE":0,"CLASSIFICATION_TYPE":"U","NORAD_CAT_ID":62321,"ELEMENT_SET_NO":999,"REV_AT_EPOCH":3949,"BSTAR":0.0012105697,"MEAN_MOTION_DOT":0.00048316,"MEAN_MOTION_DDOT":0},{"OBJECT_NAME":"STARLINK-32654","OBJECT_ID":"2024-239X","EPOCH":"2025-08-25T14:26:00.950496","MEAN_MOTION":15.30203289,"ECCENTRICITY":7.188e-5,"INCLINATION":53.1636,"RA_OF_ASC_NODE":24.6032,"ARG_OF_PERICENTER":92.7852,"MEAN_ANOMALY":267.3232,"EPHEMERIS_TYPE":0,"CLASSIFICATION_TYPE":"U","NORAD_CAT_ID":62322,"ELEMENT_SET_NO":999,"REV_AT_EPOCH":3936,"BSTAR":0.00080471201,"MEAN_MOTION_DOT":0.00023552,"MEAN_MOTION_DDOT":0},{"OBJECT_NAME":"STARLINK-11444 [DTC]","OBJECT_ID":"2024-249A","EPOCH":"2025-08-25T13:50:59.611776","MEAN_MOTION":15.70871803,"ECCENTRICITY":0.00013368,"INCLINATION":42.9991,"RA_OF_ASC_NODE":270.0787,"ARG_OF_PERICENTER":254.7302,"MEAN_ANOMALY":105.3418,"EPHEMERIS_TYPE":0,"CLASSIFICATION_TYPE":"U","NORAD_CAT_ID":62409,"ELEMENT_SET_NO":999,"REV_AT_EPOCH":3863,"BSTAR":0.0011989779,"MEAN_MOTION_DOT":0.00156536,"MEAN_MOTION_DDOT":0},{"OBJECT_NAME":"STARLINK-11493 [DTC]","OBJECT_ID":"2024-249B","EPOCH":"2025-08-25T03:17:43.139040","MEAN_MOTION":15.70897984,"ECCENTRICITY":0.00013269,"INCLINATION":42.9989,"RA_OF_ASC_NODE":272.8044,"ARG_OF_PERICENTER":264.9102,"MEAN_ANOMALY":95.1614,"EPHEMERIS_TYPE":0,"CLASSIFICATION_TYPE":"U","NORAD_CAT_ID":62410,"ELEMENT_SET_NO":999,"REV_AT_EPOCH":3856,"BSTAR":0.001586649,"MEAN_MOTION_DOT":0.00208845,"MEAN_MOTION_DDOT":0},{"OBJECT_NAME":"STARLINK-11453 [DTC]","OBJECT_ID":"2024-249C","EPOCH":"2025-08-25T13:12:46.343232","MEAN_MOTION":15.70876644,"ECCENTRICITY":4.157e-5,"INCLINATION":42.9963,"RA_OF_ASC_NODE":269.8637,"ARG_OF_PERICENTER":324.9345,"MEAN_ANOMALY":35.1495,"EPHEMERIS_TYPE":0,"CLASSIFICATION_TYPE":"U","NORAD_CAT_ID":62411,"ELEMENT_SET_NO":999,"REV_AT_EPOCH":3863,"BSTAR":0.0011887046,"MEAN_MOTION_DOT":0.00155198,"MEAN_MOTION_DDOT":0},{"OBJECT_NAME":"STARLINK-11462 [DTC]","OBJECT_ID":"2024-249D","EPOCH":"2025-08-25T02:39:29.677824","MEAN_MOTION":15.70953137,"ECCENTRICITY":2.477e-5,"INCLINATION":42.9974,"RA_OF_ASC_NODE":272.5911,"ARG_OF_PERICENTER":26.7173,"MEAN_ANOMALY":333.3707,"EPHEMERIS_TYPE":0,"CLASSIFICATION_TYPE":"U","NORAD_CAT_ID":62412,"ELEMENT_SET_NO":999,"REV_AT_EPOCH":3856,"BSTAR":0.0013978924,"MEAN_MOTION_DOT":0.00183818,"MEAN_MOTION_DDOT":0}]
