STARLINK-32696          
1 62310U 24239K   25237.56880363  .00026010  00000+0  88687-3 0  9998
2 62310  53.1602  25.1171 0001664  94.8191 265.3000 15.30212822 39359
STARLINK-32700          
1 62311U 24239L   25237.62009931  .00007769  00000+0  20402-3 0  9991
2 62311  53.1603  15.4937 0001195  78.5853 281.5286 15.39618023 39488
STARLINK-32698          
1 62312U 24239M   25237.57512948  .00017213  00000+0  59217-3 0  9994
2 62312  53.1596  25.1526 0001201  68.2008 291.9121 15.30188020 39357
STARLINK-32634          
1 62313U 24239N   25237.62043018  .00031918  00000+0  80497-3 0  9990
2 62313  53.1596  15.4967 0001514  47.1296 312.9835 15.39605273 39495
STARLINK-32651          
1 62314U 24239P   25237.60562321  .00021442  00000+0  73392-3 0  9999
2 62314  53.1618  24.6327 0001148  48.8772 311.2328 15.30203025 39368
STARLINK-32627          
1 62315U 24239Q   25237.57301176  .00013776  00000+0  47628-3 0  9999
2 62315  53.1595  25.0942 0001638 117.4079 242.7089 15.30207349 39352
STARLINK-32596          
1 62316U 24239R   25237.56563479  .00015392  00000+0  53081-3 0  9991
2 62316  53.1600  25.0940 0001177  42.0308 318.0783 15.30194691 39357
STARLINK-32519          
1 62317U 24239S   25237.57399718  .00031539  00000+0  79457-3 0  9992
2 62317  53.1611  15.2018 0001862  80.1431 279.9784 15.39643775 39490
STARLINK-32527          
1 62319U 24239U   25237.52732316  .00035089  00000+0  88217-3 0  9992
2 62319  53.1606  15.6218 0001124  69.2958 290.8167 15.39654713 39485
STARLINK-32481          
1 62320U 24239V   25237.61080983  .00011458  00000+0  29602-3 0  9997
2 62320  53.1603  15.4340 0001675 125.7414 234.3747 15.39617809 39497
STARLINK-32645          
1 62321U 24239W   25237.62474537  .00048316  00000+0  12106-2 0  9994
2 62321  53.1600  15.5223 0001555  54.8313 305.2837 15.39611380 39499
STARLINK-32654          
1 62322U 24239X   25237.60139989  .00023552  00000+0  80471-3 0  9998
2 62322  53.1636  24.6032 0000718  92.7852 267.3232 15.30203289 39366
STARLINK-11444 [DTC]    
1 62409U 24249A   25237.57707884  .00156536  00000+0  11990-2 0  9994
2 62409  42.9991 270.0787 0001336 254.7302 105.3418 15.70871803 38636
STARLINK-11493 [DTC]    
1 62410U 24249B   25237.13730485  .00208845  00000+0  15866-2 0  9998
2 62410  42.9989 272.8044 0001326 264.9102  95.1614 15.70897984 38565
STARLINK-11453 [DTC]    
1 62411U 24249C   25237.55053638  .00155198  00000+0  11887-2 0  9994
2 62411  42.9963 269.8637 0000415 324.9345  35.1495 15.70876644 38635
STARLINK-11462 [DTC]    
1 62412U 24249D   25237.11076016  .00183818  00000+0  13979-2 0  9996
2 62412  42.9974 272.5911 0000247  26.7173 333.3707 15.70953137 38567
